NORAD_CAT_ID,OBJECT_NAME,OBJECT_TYPE,EPOCH,MEAN_MOTION,ECCENTRICITY,INCLINATION,RA_OF_ASC_NODE,ARG_OF_PERICENTER,MEAN_ANOMALY,BSTAR,MEAN_MOTION_DOT,MEAN_MOTION_DDOT,TLE_LINE0,TLE_LINE1,TLE_LINE2,SEMIMAJOR_AXIS,PERIOD,APOGEE,PERIGEE,DECAYED
55948.0,STARLINK-5900,PAYLOAD,2024-04-27 21:32:41,14.98329362,0.0002239,70.0026,181.1164,259.0169,101.0738,-9.2309e-06,-2.03e-06,0.0,0 STARLINK-5900,1 55948U 23037AL  24118.89770299 -.00000203  00000-0 -92309-5 0  9998,2 55948  70.0026 181.1164 0002239 259.0169 101.0738 14.98329362 62496,6950.195,96.107,573.616,570.504,0.0
55948.0,STARLINK-5900,PAYLOAD,2024-04-28 11:57:54,14.98323556,0.0002848,70.0008,179.6024,267.4036,92.6797,-0.00010114,-1.299e-05,0.0,0 STARLINK-5900,1 55948U 23037AL  24119.49854895 -.00001299  00000-0 -10114-3 0  9998,2 55948  70.0008 179.6024 0002848 267.4036  92.6797 14.98323556 62922,6950.213,96.107,574.057,570.098,0.0
55948.0,STARLINK-5900,PAYLOAD,2024-04-28 13:34:02,14.98323447,0.0002849,70.0008,179.4341,267.4651,92.6182,-0.00010073,-1.294e-05,0.0,0 STARLINK-5900,1 55948U 23037AL  24119.56530924 -.00001294  00000-0 -10073-3 0  9999,2 55948  70.0008 179.4341 0002849 267.4651  92.6182 14.98323447 62596,6950.213,96.107,574.058,570.098,0.0
55948.0,STARLINK-5900,PAYLOAD,2024-04-28 21:34:42,14.98328102,0.0002864,70.0006,178.5924,269.4189,90.6642,-5.9325e-05,-8.01e-06,0.0,0 STARLINK-5900,1 55948U 23037AL  24119.89910596 -.00000801  00000-0 -59325-4 0  9999,2 55948  70.0006 178.5924 0002864 269.4189  90.6642 14.98328102 62644,6950.199,96.107,574.054,570.073,0.0
55948.0,STARLINK-5900,PAYLOAD,2024-04-29 03:59:14,14.98329424,0.0003007,70.0002,177.9192,268.2124,91.869,3.7342e-05,3.53e-06,0.0,0 STARLINK-5900,1 55948U 23037AL  24120.16614185  .00000353  00000-0  37342-4 0  9991,2 55948  70.0002 177.9192 0003007 268.2124  91.8690 14.98329424 63023,6950.195,96.107,574.15,569.97,0.0
55948.0,STARLINK-5900,PAYLOAD,2024-04-29 13:36:02,14.98335829,0.000313,69.9999,176.9089,268.9296,91.1505,1.7869e-05,1.2e-06,0.0,0 STARLINK-5900,1 55948U 23037AL  24120.56669791  .00000120  00000-0  17869-4 0  9992,2 55948  69.9999 176.9089 0003130 268.9296  91.1505 14.98335829 62745,6950.175,96.107,574.215,569.864,0.0
55948.0,STARLINK-5900,PAYLOAD,2024-04-29 21:36:42,14.98337575,0.000306,69.9999,176.0671,269.4968,90.5841,-2.2507e-05,-3.62e-06,0.0,0 STARLINK-5900,1 55948U 23037AL  24120.90049689 -.00000362  00000-0 -22507-4 0  9993,2 55948  69.9999 176.0671 0003060 269.4968  90.5841 14.98337575 62798,6950.169,96.107,574.161,569.908,0.0
55948.0,STARLINK-5900,PAYLOAD,2024-04-30 04:01:15,14.98329031,0.000306,69.9997,175.3938,269.6299,90.4509,0.00017815,2.033e-05,0.0,0 STARLINK-5900,1 55948U 23037AL  24121.16753650  .00002033  00000-0  17815-3 0  9992,2 55948  69.9997 175.3938 0003060 269.6299  90.4509 14.98329031 63174,6950.196,96.107,574.188,569.934,0.0
55948.0,STARLINK-5900,PAYLOAD,2024-04-30 13:38:03,14.98332757,0.0003106,69.9996,174.3841,270.0265,90.0538,0.00013826,1.557e-05,0.0,0 STARLINK-5900,1 55948U 23037AL  24121.56809504  .00001557  00000-0  13826-3 0  9994,2 55948  69.9996 174.3841 0003106 270.0265  90.0538 14.98332757 62890,6950.184,96.107,574.208,569.891,0.0
55948.0,STARLINK-5900,PAYLOAD,2024-05-01 04:03:16,14.98331231,0.0003039,69.9998,172.8693,270.1416,89.9395,-2.2166e-05,-3.57e-06,0.0,0 STARLINK-5900,1 55948U 23037AL  24122.16893973 -.00000357  00000-0 -22166-4 0  9991,2 55948  69.9998 172.8693 0003039 270.1416  89.9395 14.98331231 63327,6950.189,96.107,574.166,569.942,0.0
55948.0,STARLINK-5900,PAYLOAD,2024-05-01 10:27:48,14.98334702,0.0003071,69.9996,172.196,270.3424,89.7384,-3.7535e-06,-1.38e-06,0.0,0 STARLINK-5900,1 55948U 23037AL  24122.43597646 -.00000138  00000-0 -37535-5 0  9993,2 55948  69.9996 172.1960 0003071 270.3424  89.7384 14.98334702 63021,6950.178,96.107,574.178,569.909,0.0
55948.0,STARLINK-5900,PAYLOAD,2024-05-01 20:04:36,14.98333512,0.0003067,69.9996,171.1861,270.5613,89.5194,-1.459e-05,-2.67e-06,0.0,0 STARLINK-5900,1 55948U 23037AL  24122.83653621 -.00000267  00000-0 -14590-4 0  9991,2 55948  69.9996 171.1861 0003067 270.5613  89.5194 14.98333512 63088,6950.182,96.107,574.179,569.915,0.0
55948.0,STARLINK-5900,PAYLOAD,2024-05-02 04:05:17,14.98332478,0.0002984,69.9996,170.3445,271.498,88.5837,-5.4598e-05,-7.44e-06,0.0,0 STARLINK-5900,1 55948U 23037AL  24123.17033747 -.00000744  00000-0 -54598-4 0  9992,2 55948  69.9996 170.3445 0002984 271.4980  88.5837 14.98332478 63477,6950.185,96.107,574.124,569.976,0.0
55948.0,STARLINK-5900,PAYLOAD,2024-05-02 12:05:57,14.98332758,0.0002947,69.9996,169.5038,268.3683,91.7138,-4.0168e-05,-5.72e-06,0.0,0 STARLINK-5900,1 55948U 23037AL  24123.50413605 -.00000572  00000-0 -40168-4 0  9991,2 55948  69.9996 169.5038 0002947 268.3683  91.7138 14.98332758 63188,6950.184,96.107,574.098,570.001,0.0
55948.0,STARLINK-5900,PAYLOAD,2024-05-03 05:43:25,14.98335233,0.0003007,69.9993,167.652,266.9622,93.1193,4.6682e-05,4.64e-06,0.0,0 STARLINK-5900,1 55948U 23037AL  24124.23849022  .00000464  00000-0  46682-4 0  9993,2 55948  69.9993 167.6520 0003007 266.9622  93.1193 14.98335233 63633,6950.177,96.107,574.132,569.952,0.0
55948.0,STARLINK-5900,PAYLOAD,2024-05-03 12:07:57,14.98337811,0.0002996,69.9992,166.9783,269.4149,90.6667,7.0028e-05,7.43e-06,0.0,0 STARLINK-5900,1 55948U 23037AL  24124.50552704  .00000743  00000-0  70028-4 0  9992,2 55948  69.9992 166.9783 0002996 269.4149  90.6667 14.98337811 63332,6950.169,96.106,574.116,569.951,0.0
55948.0,STARLINK-5900,PAYLOAD,2024-05-03 20:08:38,14.98329511,0.0002974,69.9992,166.1365,270.3665,89.7153,-4.38e-06,-1.45e-06,0.0,0 STARLINK-5900,1 55948U 23037AL  24124.83933332 -.00000145  00000-0 -43800-5 0  9995,2 55948  69.9992 166.1365 0002974 270.3665  89.7153 14.98329511 63382,6950.194,96.107,574.126,569.992,0.0
55948.0,STARLINK-5900,PAYLOAD,2024-05-04 04:09:19,14.98325862,0.000246,69.9989,165.2945,271.1412,88.9465,1.0376e-06,-8.1e-07,0.0,0 STARLINK-5900,1 55948U 23037AL  24125.17313798 -.00000081  00000-0  10376-5 0  9991,2 55948  69.9989 165.2945 0002460 271.1412  88.9465 14.98325862 63776,6950.206,96.107,573.78,570.361,0.0
55948.0,STARLINK-5900,PAYLOAD,2024-05-04 12:10:00,14.98313197,0.0002828,69.9995,164.4536,267.4062,92.6773,-0.00012766,-1.615e-05,0.0,0 STARLINK-5900,1 55948U 23037AL  24125.50695125 -.00001615  00000-0 -12766-3 0  9993,2 55948  69.9995 164.4536 0002828 267.4062  92.6773 14.98313197 63825,6950.245,96.108,574.075,570.144,0.0
55948.0,STARLINK-5900,PAYLOAD,2024-05-05 12:12:01,14.98321502,0.0002815,69.9992,161.9282,267.7131,92.3706,-0.00011092,-1.416e-05,0.0,0 STARLINK-5900,1 55948U 23037AL  24126.50835204 -.00001416  00000-0 -11092-3 0  9998,2 55948  69.9992 161.9282 0002815 267.7131  92.3706 14.98321502 63976,6950.219,96.108,574.041,570.128,0.0
55948.0,STARLINK-5900,PAYLOAD,2024-05-05 20:12:41,14.98329324,0.0003073,69.9988,161.0872,270.5321,89.5486,-7.2554e-05,-9.59e-06,0.0,0 STARLINK-5900,1 55948U 23037AL  24126.84214731 -.00000959  00000-0 -72554-4 0  9993,2 55948  69.9988 161.0872 0003073 270.5321  89.5486 14.98329324 64027,6950.195,96.107,574.196,569.924,0.0
55948.0,STARLINK-5900,PAYLOAD,2024-05-06 12:14:02,14.98324468,0.000296,69.9988,159.4033,269.6084,90.4736,0.00018679,2.136e-05,0.0,0 STARLINK-5900,1 55948U 23037AL  24127.50974759  .00002136  00000-0  18679-3 0  9994,2 55948  69.9988 159.4033 0002960 269.6084  90.4736 14.98324468 63781,6950.21,96.107,574.132,570.018,0.0
55948.0,STARLINK-5900,PAYLOAD,2024-05-07 04:15:22,14.98333921,0.000301,69.9987,157.7202,269.0861,90.9954,0.00017738,2.024e-05,0.0,0 STARLINK-5900,1 55948U 23037AL  24128.17734245  .00002024  00000-0  17738-3 0  9993,2 55948  69.9987 157.7202 0003010 269.0861  90.9954 14.98333921 64224,6950.181,96.107,574.138,569.954,0.0
55948.0,STARLINK-5900,PAYLOAD,2024-05-07 12:16:02,14.98336332,0.0002997,69.9987,156.8786,269.3017,90.7799,0.0001862,2.13e-05,0.0,0 STARLINK-5900,1 55948U 23037AL  24128.51113960  .00002130  00000-0  18620-3 0  9995,2 55948  69.9987 156.8786 0002997 269.3017  90.7799 14.98336332 63931,6950.173,96.107,574.121,569.955,0.0
55948.0,STARLINK-5900,PAYLOAD,2024-05-08 04:17:22,14.98338995,0.0002944,69.9989,155.1954,269.4873,90.5949,6.1465e-05,6.41e-06,0.0,0 STARLINK-5900,1 55948U 23037AL  24129.17873784  .00000641  00000-0  61465-4 0  9996,2 55948  69.9989 155.1954 0002944 269.4873  90.5949 14.98338995 64376,6950.165,96.106,574.076,569.984,0.0
55948.0,STARLINK-5900,PAYLOAD,2024-05-08 10:41:54,14.98340841,0.0002984,69.9988,154.5219,270.284,89.7977,5.4435e-05,5.57e-06,0.0,0 STARLINK-5900,1 55948U 23037AL  24129.44577500  .00000557  00000-0  54435-4 0  9998,2 55948  69.9988 154.5219 0002984 270.2840  89.7977 14.98340841 64071,6950.159,96.106,574.098,569.95,0.0
55948.0,STARLINK-5900,PAYLOAD,2024-05-08 18:42:35,14.98340238,0.0002981,69.9988,153.6803,270.132,89.9497,1.4085e-05,7.5e-07,0.0,0 STARLINK-5900,1 55948U 23037AL  24129.77957392  .00000075  00000-0  14085-4 0  9997,2 55948  69.9988 153.6803 0002981 270.1320  89.9497 14.98340238 64124,6950.161,96.106,574.098,569.954,0.0
55948.0,STARLINK-5900,PAYLOAD,2024-05-09 04:19:23,14.98339516,0.0002873,69.999,152.6711,268.2367,91.8463,-4.5175e-05,-6.32e-06,0.0,0 STARLINK-5900,1 55948U 23037AL  24130.18013331 -.00000632  00000-0 -45175-4 0  9995,2 55948  69.9990 152.6711 0002873 268.2367  91.8463 14.98339516 64529,6950.163,96.106,574.025,570.032,0.0
55948.0,STARLINK-5900,PAYLOAD,2024-05-09 10:43:55,14.98337754,0.0002909,69.999,151.9977,268.2769,91.8057,-6.2692e-05,-8.41e-06,0.0,0 STARLINK-5900,1 55948U 23037AL  24130.44717316 -.00000841  00000-0 -62692-4 0  9993,2 55948  69.9990 151.9977 0002909 268.2769  91.8057 14.98337754 64229,6950.169,96.107,574.056,570.012,0.0
55948.0,STARLINK-5900,PAYLOAD,2024-05-10 04:21:24,14.98333449,0.000294,69.9989,150.1458,267.9074,92.1748,-4.4576e-05,-6.25e-06,0.0,0 STARLINK-5900,1 55948U 23037AL  24131.18153217 -.00000625  00000-0 -44576-4 0  9990,2 55948  69.9989 150.1458 0002940 267.9074  92.1748 14.98333449 64679,6950.182,96.107,574.091,570.004,0.0
